CCSDS_OMM_VERS = 2.0
CREATION_DATE  = 
ORIGINATOR     = 

OBJECT_NAME    = STARLINK-35502
OBJECT_ID      = 2025-259P
CENTER_NAME    = EARTH
REF_FRAME      = TEME
TIME_SYSTEM    = UTC
MEAN_ELEMENT_THEORY = SGP/SGP4

EPOCH          = 2025-11-28T00:00:02.000160
MEAN_MOTION    = 15.68497062
ECCENTRICITY   = .00014643
INCLINATION    = 42.9996
RA_OF_ASC_NODE = 133.8153
ARG_OF_PERICENTER = 272.5018
MEAN_ANOMALY   = 300.0116

EPHEMERIS_TYPE = 0
CLASSIFICATION_TYPE = U
NORAD_CAT_ID   = 66435
ELEMENT_SET_NO = 999
REV_AT_EPOCH   = 391
BSTAR          = -.18663306E-1
MEAN_MOTION_DOT = -.1923914E-1
MEAN_MOTION_DDOT = 0

CCSDS_OMM_VERS = 2.0
CREATION_DATE  = 
ORIGINATOR     = 

OBJECT_NAME    = STARLINK-35501
OBJECT_ID      = 2025-259Q
CENTER_NAME    = EARTH
REF_FRAME      = TEME
TIME_SYSTEM    = UTC
MEAN_ELEMENT_THEORY = SGP/SGP4

EPOCH          = 2025-11-28T00:00:02.000160
MEAN_MOTION    = 15.68497486
ECCENTRICITY   = .00014958
INCLINATION    = 42.9994
RA_OF_ASC_NODE = 133.8045
ARG_OF_PERICENTER = 272.8261
MEAN_ANOMALY   = 303.5209

EPHEMERIS_TYPE = 0
CLASSIFICATION_TYPE = U
NORAD_CAT_ID   = 66436
ELEMENT_SET_NO = 999
REV_AT_EPOCH   = 391
BSTAR          = -.18665211E-1
MEAN_MOTION_DOT = -.1924141E-1
MEAN_MOTION_DDOT = 0

CCSDS_OMM_VERS = 2.0
CREATION_DATE  = 
ORIGINATOR     = 

OBJECT_NAME    = STARLINK-35474
OBJECT_ID      = 2025-259R
CENTER_NAME    = EARTH
REF_FRAME      = TEME
TIME_SYSTEM    = UTC
MEAN_ELEMENT_THEORY = SGP/SGP4

EPOCH          = 2025-11-28T00:00:02.000160
MEAN_MOTION    = 15.68496242
ECCENTRICITY   = .0001451
INCLINATION    = 42.9995
RA_OF_ASC_NODE = 133.7997
ARG_OF_PERICENTER = 273.0233
MEAN_ANOMALY   = 305.2423

EPHEMERIS_TYPE = 0
CLASSIFICATION_TYPE = U
NORAD_CAT_ID   = 66437
ELEMENT_SET_NO = 999
REV_AT_EPOCH   = 391
BSTAR          = -.18656236E-1
MEAN_MOTION_DOT = -.1923201E-1
MEAN_MOTION_DDOT = 0

CCSDS_OMM_VERS = 2.0
CREATION_DATE  = 
ORIGINATOR     = 

OBJECT_NAME    = STARLINK-34681
OBJECT_ID      = 2025-259S
CENTER_NAME    = EARTH
REF_FRAME      = TEME
TIME_SYSTEM    = UTC
MEAN_ELEMENT_THEORY = SGP/SGP4

EPOCH          = 2025-11-27T22:00:03.000096
MEAN_MOTION    = 15.68821593
ECCENTRICITY   = .00014881
INCLINATION    = 42.9998
RA_OF_ASC_NODE = 134.2964
ARG_OF_PERICENTER = 283.4408
MEAN_ANOMALY   = 185.6433

EPHEMERIS_TYPE = 0
CLASSIFICATION_TYPE = U
NORAD_CAT_ID   = 66438
ELEMENT_SET_NO = 999
REV_AT_EPOCH   = 378
BSTAR          = -.18008615E-1
MEAN_MOTION_DOT = -.1886453E-1
MEAN_MOTION_DDOT = 0

CCSDS_OMM_VERS = 2.0
CREATION_DATE  = 
ORIGINATOR     = 

OBJECT_NAME    = STARLINK-35327
OBJECT_ID      = 2025-259T
CENTER_NAME    = EARTH
REF_FRAME      = TEME
TIME_SYSTEM    = UTC
MEAN_ELEMENT_THEORY = SGP/SGP4

EPOCH          = 2025-11-27T22:00:03.000096
MEAN_MOTION    = 15.68823730
ECCENTRICITY   = .0001487
INCLINATION    = 42.9999
RA_OF_ASC_NODE = 134.3129
ARG_OF_PERICENTER = 285.3236
MEAN_ANOMALY   = 178.0127

EPHEMERIS_TYPE = 0
CLASSIFICATION_TYPE = U
NORAD_CAT_ID   = 66439
ELEMENT_SET_NO = 999
REV_AT_EPOCH   = 389
BSTAR          = -.18088008E-1
MEAN_MOTION_DOT = -.189398E-1
MEAN_MOTION_DDOT = 0

CCSDS_OMM_VERS = 2.0
CREATION_DATE  = 
ORIGINATOR     = 

OBJECT_NAME    = STARLINK-35405
OBJECT_ID      = 2025-259U
CENTER_NAME    = EARTH
REF_FRAME      = TEME
TIME_SYSTEM    = UTC
MEAN_ELEMENT_THEORY = SGP/SGP4

EPOCH          = 2025-11-27T22:00:03.000096
MEAN_MOTION    = 15.68697392
ECCENTRICITY   = .00014231
INCLINATION    = 42.9996
RA_OF_ASC_NODE = 134.2922
ARG_OF_PERICENTER = 268.1425
MEAN_ANOMALY   = 202.9683

EPHEMERIS_TYPE = 0
CLASSIFICATION_TYPE = U
NORAD_CAT_ID   = 66440
ELEMENT_SET_NO = 999
REV_AT_EPOCH   = 389
BSTAR          = -.16895038E-1
MEAN_MOTION_DOT = -.1741302E-1
MEAN_MOTION_DDOT = 0

CCSDS_OMM_VERS = 2.0
CREATION_DATE  = 
ORIGINATOR     = 

OBJECT_NAME    = STARLINK-35426
OBJECT_ID      = 2025-259V
CENTER_NAME    = EARTH
REF_FRAME      = TEME
TIME_SYSTEM    = UTC
MEAN_ELEMENT_THEORY = SGP/SGP4

EPOCH          = 2025-11-27T22:00:03.000096
MEAN_MOTION    = 15.68820828
ECCENTRICITY   = .00015072
INCLINATION    = 42.9995
RA_OF_ASC_NODE = 134.2868
ARG_OF_PERICENTER = 285.0818
MEAN_ANOMALY   = 187.8400

EPHEMERIS_TYPE = 0
CLASSIFICATION_TYPE = U
NORAD_CAT_ID   = 66441
ELEMENT_SET_NO = 999
REV_AT_EPOCH   = 389
BSTAR          = -.18039952E-1
MEAN_MOTION_DOT = -.1889327E-1
MEAN_MOTION_DDOT = 0

CCSDS_OMM_VERS = 2.0
CREATION_DATE  = 
ORIGINATOR     = 

OBJECT_NAME    = STARLINK-34724
OBJECT_ID      = 2025-259W
CENTER_NAME    = EARTH
REF_FRAME      = TEME
TIME_SYSTEM    = UTC
MEAN_ELEMENT_THEORY = SGP/SGP4

EPOCH          = 2025-11-27T22:00:03.000096
MEAN_MOTION    = 15.68827124
ECCENTRICITY   = .00014743
INCLINATION    = 42.9996
RA_OF_ASC_NODE = 134.2822
ARG_OF_PERICENTER = 283.8587
MEAN_ANOMALY   = 190.9722

EPHEMERIS_TYPE = 0
CLASSIFICATION_TYPE = U
NORAD_CAT_ID   = 66442
ELEMENT_SET_NO = 999
REV_AT_EPOCH   = 389
BSTAR          = -.1805982E-1
MEAN_MOTION_DOT = -.189159E-1
MEAN_MOTION_DDOT = 0

CCSDS_OMM_VERS = 2.0
CREATION_DATE  = 
ORIGINATOR     = 

OBJECT_NAME    = STARLINK-35219
OBJECT_ID      = 2025-259X
CENTER_NAME    = EARTH
REF_FRAME      = TEME
TIME_SYSTEM    = UTC
MEAN_ELEMENT_THEORY = SGP/SGP4

EPOCH          = 2025-11-27T22:00:03.000096
MEAN_MOTION    = 15.68824795
ECCENTRICITY   = .00014676
INCLINATION    = 42.9995
RA_OF_ASC_NODE = 134.2774
ARG_OF_PERICENTER = 286.4194
MEAN_ANOMALY   = 190.3322

EPHEMERIS_TYPE = 0
CLASSIFICATION_TYPE = U
NORAD_CAT_ID   = 66443
ELEMENT_SET_NO = 999
REV_AT_EPOCH   = 378
BSTAR          = -.18061177E-1
MEAN_MOTION_DOT = -.1891548E-1
MEAN_MOTION_DDOT = 0

CCSDS_OMM_VERS = 2.0
CREATION_DATE  = 
ORIGINATOR     = 

OBJECT_NAME    = STARLINK-35360
OBJECT_ID      = 2025-259Y
CENTER_NAME    = EARTH
REF_FRAME      = TEME
TIME_SYSTEM    = UTC
MEAN_ELEMENT_THEORY = SGP/SGP4

EPOCH          = 2025-11-27T22:00:03.000096
MEAN_MOTION    = 15.68824569
ECCENTRICITY   = .00014561
INCLINATION    = 42.9997
RA_OF_ASC_NODE = 134.2625
ARG_OF_PERICENTER = 282.7833
MEAN_ANOMALY   = 199.7212

EPHEMERIS_TYPE = 0
CLASSIFICATION_TYPE = U
NORAD_CAT_ID   = 66444
ELEMENT_SET_NO = 999
REV_AT_EPOCH   = 389
BSTAR          = -.18076981E-1
MEAN_MOTION_DOT = -.1892992E-1
MEAN_MOTION_DDOT = 0

CCSDS_OMM_VERS = 2.0
CREATION_DATE  = 
ORIGINATOR     = 

OBJECT_NAME    = STARLINK-34698
OBJECT_ID      = 2025-259Z
CENTER_NAME    = EARTH
REF_FRAME      = TEME
TIME_SYSTEM    = UTC
MEAN_ELEMENT_THEORY = SGP/SGP4

EPOCH          = 2025-11-27T22:00:03.000096
MEAN_MOTION    = 15.68827685
ECCENTRICITY   = .00014183
INCLINATION    = 42.9997
RA_OF_ASC_NODE = 134.2721
ARG_OF_PERICENTER = 286.4527
MEAN_ANOMALY   = 192.2134

EPHEMERIS_TYPE = 0
CLASSIFICATION_TYPE = U
NORAD_CAT_ID   = 66445
ELEMENT_SET_NO = 999
REV_AT_EPOCH   = 378
BSTAR          = -.18087555E-1
MEAN_MOTION_DOT = -.1894166E-1
MEAN_MOTION_DDOT = 0

CCSDS_OMM_VERS = 2.0
CREATION_DATE  = 
ORIGINATOR     = 

OBJECT_NAME    = STARLINK-34986
OBJECT_ID      = 2025-259AA
CENTER_NAME    = EARTH
REF_FRAME      = TEME
TIME_SYSTEM    = UTC
MEAN_ELEMENT_THEORY = SGP/SGP4

EPOCH          = 2025-11-27T22:00:03.000096
MEAN_MOTION    = 15.68827884
ECCENTRICITY   = .00014445
INCLINATION    = 42.9997
RA_OF_ASC_NODE = 134.2668
ARG_OF_PERICENTER = 283.0802
MEAN_ANOMALY   = 197.5029

EPHEMERIS_TYPE = 0
CLASSIFICATION_TYPE = U
NORAD_CAT_ID   = 66446
ELEMENT_SET_NO = 999
REV_AT_EPOCH   = 389
BSTAR          = -.18089307E-1
MEAN_MOTION_DOT = -.1894361E-1
MEAN_MOTION_DDOT = 0

