STARLINK-35502          
1 66435U 25259P   25332.00002315 -.01923914  00000+0 -18663-1 0  9998
2 66435  42.9996 133.8153 0001464 272.5018 300.0116 15.68497062  3911
STARLINK-35501          
1 66436U 25259Q   25332.00002315 -.01924141  00000+0 -18665-1 0  9994
2 66436  42.9994 133.8045 0001495 272.8261 303.5209 15.68497486  3918
STARLINK-35474          
1 66437U 25259R   25332.00002315 -.01923201  00000+0 -18656-1 0  9991
2 66437  42.9995 133.7997 0001451 273.0233 305.2423 15.68496242  3915
STARLINK-34681          
1 66438U 25259S   25331.91670139 -.01886453  00000+0 -18009-1 0  9995
2 66438  42.9998 134.2964 0001488 283.4408 185.6433 15.68821593  3785
STARLINK-35327          
1 66439U 25259T   25331.91670139 -.01893980  00000+0 -18088-1 0  9996
2 66439  42.9999 134.3129 0001487 285.3236 178.0127 15.68823730  3893
STARLINK-35405          
1 66440U 25259U   25331.91670139 -.01741302  00000+0 -16895-1 0  9992
2 66440  42.9996 134.2922 0001423 268.1425 202.9683 15.68697392  3898
STARLINK-35426          
1 66441U 25259V   25331.91670139 -.01889327  00000+0 -18040-1 0  9997
2 66441  42.9995 134.2868 0001507 285.0818 187.8400 15.68820828  3894
STARLINK-34724          
1 66442U 25259W   25331.91670139 -.01891590  00000+0 -18060-1 0  9995
2 66442  42.9996 134.2822 0001474 283.8587 190.9722 15.68827124  3896
STARLINK-35219          
1 66443U 25259X   25331.91670139 -.01891548  00000+0 -18061-1 0  9990
2 66443  42.9995 134.2774 0001467 286.4194 190.3322 15.68824795  3786
STARLINK-35360          
1 66444U 25259Y   25331.91670139 -.01892992  00000+0 -18077-1 0  9992
2 66444  42.9997 134.2625 0001456 282.7833 199.7212 15.68824569  3893
STARLINK-34698          
1 66445U 25259Z   25331.91670139 -.01894166  00000+0 -18088-1 0  9990
2 66445  42.9997 134.2721 0001418 286.4527 192.2134 15.68827685  3781
STARLINK-34986          
1 66446U 25259AA  25331.91670139 -.01894361  00000+0 -18089-1 0  9999
2 66446  42.9997 134.2668 0001444 283.0802 197.5029 15.68827884  3894
